      2.10          N: GNSS NAV DATA                        RINEX VERSION / TYPE
fic2rin                                 07/16/2023 00:17:51 PGM / RUN BY / DATE
                                                            END OF HEADER
15 23  7 15  8  0  0.0  .581811182201D-04  .352429196937D-11  .000000000000D+00
     .310000000000D+02 -.140312500000D+02  .503770984084D-08 -.368568799501D+00
    -.610947608948D-06  .151142226532D-01  .926107168198D-05  .515374955750D+04
     .547200000000D+06 -.100582838058D-06 -.283354992450D+01  .225380063057D-06
     .933128056369D+00  .190312500000D+03  .121400980806D+01 -.836213403073D-08
     .674670959896D-09  .100000000000D+01  .227000000000D+04  .000000000000D+00
     .240000000000D+01  .000000000000D+00 -.107102096081D-07  .310000000000D+02
     .540000000000D+06  .400000000000D+01
10 23  7 15  8  0  0.0 -.452264212072D-04 -.147792889038D-11  .000000000000D+00
     .840000000000D+02 -.135093750000D+03  .362979405263D-08  .261551570549D+01
    -.693090260029D-05  .858679157682D-02  .834651291370D-05  .515369422531D+04
     .547200000000D+06 -.242143869400D-07  .254343593088D+01 -.141561031342D-06
     .979638406055D+00  .227687500000D+03 -.243924784154D+01 -.750959851921D-08
     .328585115460D-10  .100000000000D+01  .227000000000D+04  .000000000000D+00
     .240000000000D+01  .000000000000D+00  .232830643654D-08  .840000000000D+02
     .540000000000D+06  .400000000000D+01
9  23  7 15  8  0  0.0 -.111796427518D-03  .932232069317D-11  .000000000000D+00
     .670000000000D+02 -.141875000000D+02  .441518391013D-08  .109603970209D+01
    -.666826963425D-06  .249224901199D-02  .886246562004D-05  .515358133888D+04
     .547200000000D+06 -.931322574615D-08 -.271395528603D+01 -.894069671631D-07
     .956660138198D+00  .205218750000D+03  .193535347284D+01 -.786604193793D-08
     .659313177326D-09  .100000000000D+01  .227000000000D+04  .000000000000D+00
     .240000000000D+01  .000000000000D+00  .931322574615D-09  .670000000000D+02
     .540000000000D+06  .400000000000D+01
26 23  7 15  8  0  0.0  .236409716308D-03 -.113686837722D-11  .000000000000D+00
     .170000000000D+02  .355937500000D+02  .515950062820D-08  .244272452048D+01
     .184588134289D-05  .797070597764D-02  .996142625809D-05  .515371957016D+04
     .547200000000D+06 -.216066837311D-06 -.666384873948D+00 -.119209289551D-06
     .933445038533D+00  .172968750000D+03  .463700410663D+00 -.798818988303D-08
    -.467519474063D-09  .100000000000D+01  .227000000000D+04  .000000000000D+00
     .240000000000D+01  .000000000000D+00  .698491930962D-08  .170000000000D+02
     .540000000000D+06  .400000000000D+01
24 23  7 15  8  0  0.0 -.258328393102D-03 -.122781784739D-10  .000000000000D+00
     .650000000000D+02 -.218750000000D+00  .555916013276D-08 -.126063738137D+01
     .234693288803D-06  .140521505382D-01  .488944351673D-05  .515363326836D+04
     .547200000000D+06  .327825546265D-06 -.173362528838D+01  .150874257088D-06
     .933487631392D+00  .266468750000D+03  .901730365809D+00 -.834641909043D-08
     .610739725475D-10  .100000000000D+01  .227000000000D+04  .000000000000D+00
     .240000000000D+01  .000000000000D+00  .279396772385D-08  .650000000000D+02
     .540000000000D+06  .400000000000D+01
13 23  7 15  8  0  0.0  .547319184989D-03  .500222085975D-11  .000000000000D+00
     .420000000000D+02  .315625000000D+01  .435303846438D-08  .237834989296D+00
     .912696123123D-07  .718533294275D-02  .803545117378D-05  .515366584015D+04
     .547200000000D+06 -.558793544769D-07 -.255296932181D+01  .124797224998D-06
     .970156031464D+00  .232812500000D+03  .912537797468D+00 -.785104131310D-08
     .590738892360D-09  .100000000000D+01  .227000000000D+04  .000000000000D+00
     .240000000000D+01  .000000000000D+00 -.111758708954D-07  .420000000000D+02
     .540000000000D+06  .400000000000D+01
27 23  7 15  8  0  0.0 -.342074781656D-05 -.761701812735D-11  .000000000000D+00
     .370000000000D+02  .129031250000D+03  .438018245218D-08  .642327013510D+00
     .692903995514D-05  .115371790016D-01  .601634383202D-05  .515367564964D+04
     .547200000000D+06 -.372529029846D-07  .445792273083D+00  .108033418655D-06
     .967178138829D+00  .263750000000D+03  .743847402973D+00 -.821784230612D-08
    -.571452374714D-10  .100000000000D+01  .227000000000D+04  .000000000000D+00
     .240000000000D+01  .000000000000D+00  .186264514923D-08  .370000000000D+02
     .540000000000D+06  .400000000000D+01
32 23  7 15  8  0  0.0 -.521427020431D-03 -.761701812735D-11  .000000000000D+00
     .154000000000D+03 -.187812500000D+02  .441054085959D-08  .123519065577D+01
    -.100955367088D-05  .694743497297D-02  .867620110512D-05  .515376623154D+04
     .547200000000D+06 -.100582838058D-06 -.270058762193D+01  .577419996262D-07
     .960245402235D+00  .208312500000D+03 -.220189279031D+01 -.786639909567D-08
     .588238788221D-09  .100000000000D+01  .227000000000D+04  .000000000000D+00
     .240000000000D+01  .000000000000D+00  .465661287308D-09  .154000000000D+03
     .540000000000D+06  .400000000000D+01
16 23  7 15  8  0  0.0 -.480568502098D-03  .443378667114D-11  .000000000000D+00
     .104000000000D+03  .498437500000D+02  .443554190098D-08  .154539070626D+01
     .271946191788D-05  .132978650508D-01  .106804072857D-04  .515363185310D+04
     .547200000000D+06 -.327825546265D-06 -.508758125121D+00  .130385160446D-06
     .964739774770D+00  .179343750000D+03  .790767229281D+00 -.786818488434D-08
    -.503592405216D-09  .100000000000D+01  .227000000000D+04  .000000000000D+00
     .340000000000D+01  .000000000000D+00 -.102445483208D-07  .104000000000D+03
     .540000000000D+06  .400000000000D+01
14 23  7 15  8  0  0.0  .122812576592D-03  .120508047985D-10  .000000000000D+00
     .920000000000D+02  .414687500000D+02  .471483924912D-08 -.299786321397D+01
     .220909714699D-05  .339438184164D-02  .998005270958D-05  .515368247223D+04
     .547200000000D+06 -.633299350739D-07 -.566372151765D+00 -.558793544769D-08
     .948371414059D+00  .182656250000D+03 -.297594368187D+01 -.785068415536D-08
    -.435018120251D-09  .100000000000D+01  .227000000000D+04  .000000000000D+00
     .240000000000D+01  .000000000000D+00 -.791624188423D-08  .920000000000D+02
     .540000000000D+06  .400000000000D+01
20 23  7 15  8  0  0.0  .422591343522D-03 -.204636307899D-11  .000000000000D+00
     .850000000000D+02 -.117375000000D+03  .453161733148D-08 -.732248599928D+00
    -.617280602455D-05  .403184175957D-02  .674650073051D-05  .515358467484D+04
     .547200000000D+06  .173225998878D-06  .237558395375D+01 -.204890966415D-07
     .949333055944D+00  .244000000000D+03 -.287725975159D+01 -.810712340852D-08
    -.144291724615D-09  .100000000000D+01  .227000000000D+04  .000000000000D+00
     .240000000000D+01  .000000000000D+00 -.838190317154D-08  .850000000000D+02
     .540000000000D+06  .400000000000D+01
17 23  7 15  8  0  0.0  .720979645848D-03  .682121026330D-12  .000000000000D+00
     .790000000000D+02  .106156250000D+03  .421553273672D-08  .540477683991D+00
     .556930899620D-05  .135991413845D-01  .570714473724D-05  .515355186272D+04
     .547200000000D+06 -.173225998878D-06  .511809355303D+00 -.614672899246D-07
     .973849283726D+00  .281437500000D+03 -.140848907690D+01 -.820534178542D-08
     .321441960776D-11  .100000000000D+01  .227000000000D+04  .000000000000D+00
     .240000000000D+01  .000000000000D+00 -.111758708954D-07  .790000000000D+02
     .540000000000D+06  .400000000000D+01
11 23  7 15  8  0  0.0 -.276762992144D-03 -.161435309565D-10  .000000000000D+00
     .175000000000D+03 -.448125000000D+02  .456090426568D-08  .283037592623D-01
    -.247173011303D-05  .927127315663D-03  .705942511559D-06  .515356395721D+04
     .547200000000D+06  .223517417908D-07  .154747705712D+01  .186264514923D-08
     .965325326749D+00  .367781250000D+03 -.285291071633D+01 -.835534803378D-08
    -.230009580822D-09  .100000000000D+01  .227000000000D+04  .000000000000D+00
     .240000000000D+01  .000000000000D+00 -.884756445885D-08  .943000000000D+03
     .540000000000D+06  .400000000000D+01
28 23  7 15  8  0  0.0  .824732705951D-04 -.136424205266D-11  .000000000000D+00
     .220000000000D+03  .937500000000D+00  .493341978245D-08  .257006564080D+01
    -.150874257088D-06  .622280640528D-03  .567361712456D-05  .515369965744D+04
     .547200000000D+06  .558793544769D-08 -.167884281283D+01 -.167638063431D-07
     .961015341872D+00  .273468750000D+03  .166411086204D+01 -.798211820155D-08
     .607168148133D-11  .100000000000D+01  .227000000000D+04  .000000000000D+00
     .240000000000D+01  .000000000000D+00 -.977888703346D-08  .220000000000D+03
     .540000000000D+06  .400000000000D+01
19 23  7 15  8  0  0.0  .344113912433D-03  .511590769747D-11  .000000000000D+00
     .117000000000D+03  .121000000000D+03  .418588864478D-08  .271282417679D+01
     .639818608761D-05  .950037338771D-02  .485591590405D-05  .515364051247D+04
     .547200000000D+06  .108033418655D-06  .556294698673D+00  .240281224251D-06
     .972907290294D+00  .292500000000D+03  .235605653848D+01 -.789568602987D-08
     .114290474943D-10  .100000000000D+01  .227000000000D+04  .000000000000D+00
     .240000000000D+01  .000000000000D+00 -.153668224812D-07  .117000000000D+03
     .540000000000D+06  .400000000000D+01
18 23  7 15  8  0  0.0 -.346124172211D-03 -.142108547152D-10  .000000000000D+00
     .153000000000D+03 -.399062500000D+02  .426303471536D-08 -.140363104488D+01
    -.204145908356D-05  .344966712873D-02  .674277544022D-06  .515366649628D+04
     .547200000000D+06 -.987201929092D-07  .151586070420D+01 -.558793544769D-07
     .973772372271D+00  .374750000000D+03  .312937365228D+01 -.818641242551D-08
    -.167864135072D-09  .100000000000D+01  .227000000000D+04  .000000000000D+00
     .240000000000D+01  .000000000000D+00 -.838190317154D-08  .409000000000D+03
     .540000000000D+06  .400000000000D+01
